SENTINEL-6              
1 46984U 20086A   23227.08090877 -.00000053  00000+0  32843-4 0  9994
2 46984  66.0412 129.1350 0007934 268.8292  91.1814 12.80928897127629
